EXCITE                  
1 43819U 18099BP  26068.69809098  .00002813  00000+0  19631-3 0  9999
2 43819  97.4107 111.3606 0017626 337.4818  22.5634 15.06036758396774
STARLINK-4500           
1 53413U 22097AB  26068.50721841  .00001912  00000+0  13816-3 0  9990
2 53413  53.2170 114.9413 0001371  90.6407 269.4743 15.08850891198623
